COSMOS 2431 [GLONASS-M] 
1 32277U 07052C   22259.28629619 -.00000091  00000+0  00000+0 0  9997
2 32277  66.0915   1.6085 0015631 176.1486 193.3592  2.13208561116018